NORAD_CAT_ID,OBJECT_NAME,OBJECT_TYPE,EPOCH,MEAN_MOTION,ECCENTRICITY,INCLINATION,RA_OF_ASC_NODE,ARG_OF_PERICENTER,MEAN_ANOMALY,BSTAR,MEAN_MOTION_DOT,MEAN_MOTION_DDOT,TLE_LINE0,TLE_LINE1,TLE_LINE2,SEMIMAJOR_AXIS,PERIOD,APOGEE,PERIGEE,DECAYED
49748.0,STARLINK-3248,PAYLOAD,2022-04-24 22:00:00,15.08851958,0.0001984,53.2242,20.2609,36.2464,67.661,-0.0034802,-0.0005527,0.0,0 STARLINK-3248,1 49748U 21115AA  22114.91667824 -.00055270  00000-0 -34802-2 0  9995,2 49748  53.2242  20.2609 0001984  36.2464  67.6610 15.08851958 23065,6917.844,95.437,541.081,538.336,0.0
49748.0,STARLINK-3248,PAYLOAD,2022-04-25 14:00:01,15.08793942,0.0001887,53.2239,17.2676,39.1167,87.9633,0.0026021,0.00041315,0.0,0 STARLINK-3248,1 49748U 21115AA  22115.58334491  .00041315  00000-0  26021-2 0  9997,2 49748  53.2239  17.2676 0001887  39.1167  87.9633 15.08793942 23164,6918.021,95.44,541.192,538.581,0.0
49748.0,STARLINK-3248,PAYLOAD,2022-04-25 22:00:00,15.08836097,0.0002034,53.224,15.7728,39.7563,98.8835,-0.00082117,-0.00013332,0.0,0 STARLINK-3248,1 49748U 21115AA  22115.91667824 -.00013332  00000-0 -82117-3 0  9992,2 49748  53.2240  15.7728 0002034  39.7563  98.8835 15.08836097  3609,6917.892,95.438,541.164,538.35,0.0
49748.0,STARLINK-3248,PAYLOAD,2022-04-26 14:00:01,15.08842771,0.0001893,53.2235,12.7794,41.0151,120.8782,0.00081467,0.00012702,0.0,0 STARLINK-3248,1 49748U 21115AA  22116.58335648  .00012702  00000-0  81467-3 0  9997,2 49748  53.2235  12.7794 0001893  41.0151 120.8782 15.08842771 23317,6917.871999999999,95.437,541.0459999999998,538.427,0.0
49748.0,STARLINK-3248,PAYLOAD,2022-04-26 22:00:00,15.0884962,0.0002003,53.2236,11.2848,38.3964,135.0357,-0.0009453,-0.00015305,0.0,0 STARLINK-3248,1 49748U 21115AA  22116.91667824 -.00015305  00000-0 -94530-3 0  9997,2 49748  53.2236  11.2848 0002003  38.3964 135.0357 15.08849620  3568,6917.851,95.437,541.102,538.33,0.0
49748.0,STARLINK-3248,PAYLOAD,2022-04-27 06:00:00,15.08847549,0.0002043,53.2233,9.7889,34.825,150.2058,-0.0011867,-0.00019129,0.0,0 STARLINK-3248,1 49748U 21115AA  22117.25001157 -.00019129  00000-0 -11867-2 0  9995,2 49748  53.2233   9.7889 0002043  34.8250 150.2058 15.08847549 23416,6917.857,95.437,541.136,538.309,0.0
49748.0,STARLINK-3248,PAYLOAD,2022-04-27 14:00:01,15.08829005,0.0001873,53.2233,8.2911,39.7393,156.9554,0.00082779,0.00012907,0.0,0 STARLINK-3248,1 49748U 21115AA  22117.58335648  .00012907  00000-0  82779-3 0  9992,2 49748  53.2233   8.2911 0001873  39.7393 156.9554 15.08829005  3596,6917.9140000000025,95.438,541.075,538.4830000000002,0.0
49748.0,STARLINK-3248,PAYLOAD,2022-04-28 06:00:00,15.088619199999998,0.0002105,53.2232,5.3006,36.9175,182.8981,-0.00030795,-5.189e-05,0.0,0 STARLINK-3248,1 49748U 21115AA  22118.25001157 -.00005189  00000-0 -30795-3 0  9999,2 49748  53.2232   5.3006 0002105  36.9175 182.8981 15.08861920 23567,6917.813,95.436,541.135,538.222,0.0
49748.0,STARLINK-3248,PAYLOAD,2022-04-28 14:00:01,15.08829981,0.0001936,53.2233,3.8027,39.8389,191.6061,0.0031461,0.00050125,0.0,0 STARLINK-3248,1 49748U 21115AA  22118.58334491  .00050125  00000-0  31461-2 0  9993,2 49748  53.2233   3.8027 0001936  39.8389 191.6061 15.08829981  3560,6917.911,95.438,541.115,538.437,0.0
49748.0,STARLINK-3248,PAYLOAD,2022-04-29 14:00:01,15.08796222,0.000207,53.2235,359.3142,43.0247,223.2397,0.0036711,0.00058553,0.0,0 STARLINK-3248,1 49748U 21115AA  22119.58334491  .00058553  00000-0  36711-2 0  9990,2 49748  53.2235 359.3142 0002070  43.0247 223.2397 15.08796222 23779,6918.014,95.44,541.311,538.447,0.0
49748.0,STARLINK-3248,PAYLOAD,2022-04-29 22:00:00,15.088263199999998,0.000225,53.2235,357.8198,39.7649,238.0673,-0.0016542,-0.00026509,0.0,0 STARLINK-3248,1 49748U 21115AA  22119.91667824 -.00026509  00000-0 -16542-2 0  9994,2 49748  53.2235 357.8198 0002250  39.7649 238.0673 15.08826320 23821,6917.922,95.438,541.344,538.231,0.0
49748.0,STARLINK-3248,PAYLOAD,2022-04-30 14:00:01,15.08792168,0.0002017,53.2238,354.826,39.8054,261.1725,0.003141,0.0004999,0.0,0 STARLINK-3248,1 49748U 21115AA  22120.58334491  .00049990  00000-0  31410-2 0  9998,2 49748  53.2238 354.8260 0002017  39.8054 261.1725 15.08792168 23921,6918.026999999999,95.441,541.2869999999998,538.496,0.0
49748.0,STARLINK-3248,PAYLOAD,2022-04-30 22:00:00,15.08822916,0.0002216,53.2237,353.3316,37.3219,275.215,0.00031252,4.687e-05,0.0,0 STARLINK-3248,1 49748U 21115AA  22120.91667824  .00004687  00000-0  31252-3 0  9993,2 49748  53.2237 353.3316 0002216  37.3219 275.2150 15.08822916  3564,6917.933000000001,95.439,541.331,538.265,0.0
49748.0,STARLINK-3248,PAYLOAD,2022-05-01 06:00:00,15.08851508,0.0002166,53.2235,351.8351,35.6958,288.4114,-0.00097881,-0.00015838,0.0,0 STARLINK-3248,1 49748U 21115AA  22121.25001157 -.00015838  00000-0 -97881-3 0  9994,2 49748  53.2235 351.8351 0002166  35.6958 288.4114 15.08851508 24028,6917.845,95.437,541.2090000000002,538.212,0.0
49748.0,STARLINK-3248,PAYLOAD,2022-05-01 14:00:01,15.08832943,0.0001967,53.2238,350.3376,39.514,296.1927,0.0005513,8.495e-05,0.0,0 STARLINK-3248,1 49748U 21115AA  22121.58334491  .00008495  00000-0  55130-3 0  9990,2 49748  53.2238 350.3376 0001967  39.5140 296.1927 15.08832943  3573,6917.901999999999,95.438,541.128,538.406,0.0
49748.0,STARLINK-3248,PAYLOAD,2022-05-01 22:00:01,15.08833875,0.0002134,53.2236,348.8431,34.4941,312.8646,-0.0024956,-0.00039781,0.0,0 STARLINK-3248,1 49748U 21115AA  22121.91668981 -.00039781  00000-0 -24956-2 0  9996,2 49748  53.2236 348.8431 0002134  34.4941 312.8646 15.08833875  3563,6917.899,95.438,541.24,538.288,0.0
49748.0,STARLINK-3248,PAYLOAD,2022-05-02 14:00:01,15.08809636,0.0001891,53.2236,345.8492,37.8704,332.5633,0.0028152,0.00044764,0.0,0 STARLINK-3248,1 49748U 21115AA  22122.58334491  .00044764  00000-0  28152-2 0  9993,2 49748  53.2236 345.8492 0001891  37.8704 332.5633 15.08809636 24229,6917.973000000001,95.439,541.146,538.53,0.0
49748.0,STARLINK-3248,PAYLOAD,2022-05-02 22:00:01,15.0883166,0.0002117,53.2233,344.3547,35.2909,346.7815,-1.4473e-06,-3.11e-06,0.0,0 STARLINK-3248,1 49748U 21115AA  22122.91668981 -.00000311  00000-0 -14473-5 0  9990,2 49748  53.2233 344.3547 0002117  35.2909 346.7815 15.08831660  3578,6917.906,95.438,541.235,538.306,0.0
49748.0,STARLINK-3248,PAYLOAD,2022-05-03 04:00:00,15.0884321,0.0002097,53.2229,343.2324,33.484,267.2098,-7.4448e-05,-1.473e-05,0.0,0 STARLINK-3248,1 49748U 21115AA  22123.16667824 -.00001473  00000-0 -74448-4 0  9990,2 49748  53.2229 343.2324 0002097  33.4840 267.2098 15.08843210 24314,6917.871,95.437,541.186,538.285,0.0
49748.0,STARLINK-3248,PAYLOAD,2022-05-03 14:00:01,15.08838128,0.0001918,53.2232,341.3607,40.1107,5.0799,0.0022864,0.00036286,0.0,0 STARLINK-3248,1 49748U 21115AA  22123.58334491  .00036286  00000-0  22864-2 0  9998,2 49748  53.2232 341.3607 0001918  40.1107   5.0799 15.08838128  3576,6917.886,95.438,541.078,538.424,0.0
49748.0,STARLINK-3248,PAYLOAD,2022-05-03 22:00:00,15.08855621,0.0002142,53.2229,339.8662,37.2473,19.5537,0.00031985,4.808e-05,0.0,0 STARLINK-3248,1 49748U 21115AA  22123.91667824  .00004808  00000-0  31985-3 0  9994,2 49748  53.2229 339.8662 0002142  37.2473  19.5537 15.08855621  3575,6917.833000000001,95.437,541.179,538.216,0.0
49748.0,STARLINK-3248,PAYLOAD,2022-05-04 06:00:02,15.08885185,0.0002117,53.2226,338.369,38.4632,30.0129,-0.0041912,-0.0006646,0.0,0 STARLINK-3248,1 49748U 21115AA  22124.25002315 -.00066460  00000-0 -41912-2 0  9994,2 49748  53.2226 338.3690 0002117  38.4632  30.0129 15.08885185 24474,6917.7419999999975,95.435,541.072,538.143,0.0
49748.0,STARLINK-3248,PAYLOAD,2022-05-04 14:00:01,15.08844339,0.0002029,53.2227,336.872,44.0648,35.9673,0.0016137,0.00025491,0.0,0 STARLINK-3248,1 49748U 21115AA  22124.58334491  .00025491  00000-0  16137-2 0  9991,2 49748  53.2227 336.8720 0002029  44.0648  35.9673 15.08844339  3600,6917.8669999999975,95.437,541.136,538.328,0.0
49748.0,STARLINK-3248,PAYLOAD,2022-05-04 20:00:01,15.08872126,0.0002157,53.2226,335.7513,39.7591,319.0415,-0.0035113,-0.00055789,0.0,0 STARLINK-3248,1 49748U 21115AA  22124.83335648 -.00055789  00000-0 -35113-2 0  9994,2 49748  53.2226 335.7513 0002157  39.7591 319.0415 15.08872126 24560,6917.781999999997,95.436,541.139,538.155,0.0
49748.0,STARLINK-3248,PAYLOAD,2022-05-04 22:00:01,15.08851044,0.0002191,53.2226,335.3776,39.2365,52.4732,-0.0014259,-0.00022917,0.0,0 STARLINK-3248,1 49748U 21115AA  22124.91668981 -.00022917  00000-0 -14259-2 0  9997,2 49748  53.2226 335.3776 0002191  39.2365  52.4732 15.08851044  3607,6917.847,95.437,541.227,538.196,0.0
49748.0,STARLINK-3248,PAYLOAD,2022-05-05 14:00:01,15.08858382,0.0002101,53.2226,332.3833,44.4636,70.3725,-0.0017797,-0.00028515,0.0,0 STARLINK-3248,1 49748U 21115AA  22125.58334491 -.00028515  00000-0 -17797-2 0  9997,2 49748  53.2226 332.3833 0002101  44.4636  70.3725 15.08858382  3577,6917.824000000001,95.436,541.143,538.236,0.0
49748.0,STARLINK-3248,PAYLOAD,2022-05-05 16:00:00,15.0886387,0.0002135,53.2227,332.0099,44.0325,163.7041,-0.0032561,-0.00051772,0.0,0 STARLINK-3248,1 49748U 21115AA  22125.66667824 -.00051772  00000-0 -32561-2 0  9992,2 49748  53.2227 332.0099 0002135  44.0325 163.7041 15.08863870 24688,6917.807,95.436,541.149,538.195,0.0
49748.0,STARLINK-3248,PAYLOAD,2022-05-05 22:00:00,15.08816104,0.0002346,53.2226,330.8889,41.7922,84.6516,0.0012443,0.00019558,0.0,0 STARLINK-3248,1 49748U 21115AA  22125.91667824  .00019558  00000-0  12443-2 0  9991,2 49748  53.2226 330.8889 0002346  41.7922  84.6516 15.08816104  3561,6917.953,95.439,541.441,538.195,0.0
49748.0,STARLINK-3248,PAYLOAD,2022-05-06 08:00:01,15.08829406,0.00022,53.2228,329.0171,42.8519,188.0693,0.0010544,0.00016528,0.0,0 STARLINK-3248,1 49748U 21115AA  22126.33334491  .00016528  00000-0  10544-2 0  9993,2 49748  53.2228 329.0171 0002200  42.8519 188.0693 15.08829406 24792,6917.913000000001,95.438,541.3,538.256,0.0
